CYGNUS NG-23            
1 65616U 25208A   26011.20933053  .00010931  00000+0  20450-3 0  9993
2 65616  51.6335 356.5770 0007704   5.3714 354.7355 15.49231619   227
DRAGONFLY               
1 65729U 98067XH  26011.18367012  .00413594  00000+0  15077-2 0  9994
2 65729  51.6216 343.5871 0008225  90.1421 270.0525 15.86770535 17812
1998-067XK              
1 65731U 98067XK  26011.16034054  .00164722  00000+0  11674-2 0  9997
2 65731  51.6286 347.2435 0004995  61.6122 298.5380 15.72902940 17760
RSP-03                  
1 65732U 98067XL  26011.15226966  .00218742  00000+0  11935-2 0  9994
2 65732  51.6253 345.6628 0006058  70.0166 290.1487 15.78699385 17796
GHS-01                  
1 65733U 98067XM  26011.16307009  .00851423  33683-3  19087-2 0  9996
2 65733  51.6241 341.9453 0008421 100.3248 259.8711 15.97113039 17849
YOTSUBA-KULOVER         
1 65941U 98067XN  26011.14850760  .00092966  00000+0  94867-3 0  9994
2 65941  51.6295 351.6746 0003986  86.2782 273.8668 15.64296847 14452
BOTAN                   
1 65942U 98067XP  26011.12857632  .00159045  00000+0  12354-2 0  9990
2 65942  51.6270 350.0311 0004754  82.6619 277.4919 15.70749769 14474
E-KAGAKU-1              
1 65943U 98067XQ  26011.14839278  .00089857  00000+0  91785-3 0  9998
2 65943  51.6316 351.6788 0002515  91.9309 268.1974 15.64291673 14458
HRC MONOBLOCK CAMERA    
1 66052U 98067XR  26011.27325724  .00045299  00000+0  63179-3 0  9998
2 66052  51.6312 354.0064 0001210 347.0208  13.0753 15.56436802 13439
HTV-X1                  
1 66174U 25241A   26011.20933053  .00010931  00000+0  20450-3 0  9990
2 66174  51.6335 356.5770 0007704   5.3714 354.7355 15.49231619   519
SZ-21 MODULE            
1 66515U 25246C   26010.92516136  .00029319  00000+0  30076-3 0  9996
2 66515  41.4742 197.7803 0001507 129.4079 230.6895 15.64286887  9015
SHENZHOU-22             
1 66645U 25272A   26011.23134619  .00019305  00000+0  23136-3 0  9999
2 66645  41.4652 197.4962 0011436 262.9938  96.9600 15.60400008267642
