CCSDS_OMM_VERS = 2.0
CREATION_DATE  = 
ORIGINATOR     = 

OBJECT_NAME    = CYGNUS NG-23
OBJECT_ID      = 2025-208A
CENTER_NAME    = EARTH
REF_FRAME      = TEME
TIME_SYSTEM    = UTC
MEAN_ELEMENT_THEORY = SGP/SGP4

EPOCH          = 2026-01-11T05:01:26.157792
MEAN_MOTION    = 15.49231619
ECCENTRICITY   = .0007704
INCLINATION    = 51.6335
RA_OF_ASC_NODE = 356.5770
ARG_OF_PERICENTER = 5.3714
MEAN_ANOMALY   = 354.7355

EPHEMERIS_TYPE = 0
CLASSIFICATION_TYPE = U
NORAD_CAT_ID   = 65616
ELEMENT_SET_NO = 999
REV_AT_EPOCH   = 22
BSTAR          = .2045032E-3
MEAN_MOTION_DOT = .10931E-3
MEAN_MOTION_DDOT = 0

CCSDS_OMM_VERS = 2.0
CREATION_DATE  = 
ORIGINATOR     = 

OBJECT_NAME    = DRAGONFLY
OBJECT_ID      = 1998-067XH
CENTER_NAME    = EARTH
REF_FRAME      = TEME
TIME_SYSTEM    = UTC
MEAN_ELEMENT_THEORY = SGP/SGP4

EPOCH          = 2026-01-11T04:24:29.098368
MEAN_MOTION    = 15.86770535
ECCENTRICITY   = .00082257
INCLINATION    = 51.6216
RA_OF_ASC_NODE = 343.5871
ARG_OF_PERICENTER = 90.1421
MEAN_ANOMALY   = 270.0525

EPHEMERIS_TYPE = 0
CLASSIFICATION_TYPE = U
NORAD_CAT_ID   = 65729
ELEMENT_SET_NO = 999
REV_AT_EPOCH   = 1781
BSTAR          = .150772E-2
MEAN_MOTION_DOT = .413594E-2
MEAN_MOTION_DDOT = 0

CCSDS_OMM_VERS = 2.0
CREATION_DATE  = 
ORIGINATOR     = 

OBJECT_NAME    = 1998-067XK
OBJECT_ID      = 1998-067XK
CENTER_NAME    = EARTH
REF_FRAME      = TEME
TIME_SYSTEM    = UTC
MEAN_ELEMENT_THEORY = SGP/SGP4

EPOCH          = 2026-01-11T03:50:53.422656
MEAN_MOTION    = 15.72902940
ECCENTRICITY   = .00049954
INCLINATION    = 51.6286
RA_OF_ASC_NODE = 347.2435
ARG_OF_PERICENTER = 61.6122
MEAN_ANOMALY   = 298.5380

EPHEMERIS_TYPE = 0
CLASSIFICATION_TYPE = U
NORAD_CAT_ID   = 65731
ELEMENT_SET_NO = 999
REV_AT_EPOCH   = 1776
BSTAR          = .11673701E-2
MEAN_MOTION_DOT = .164722E-2
MEAN_MOTION_DDOT = 0

CCSDS_OMM_VERS = 2.0
CREATION_DATE  = 
ORIGINATOR     = 

OBJECT_NAME    = RSP-03
OBJECT_ID      = 1998-067XL
CENTER_NAME    = EARTH
REF_FRAME      = TEME
TIME_SYSTEM    = UTC
MEAN_ELEMENT_THEORY = SGP/SGP4

EPOCH          = 2026-01-11T03:39:16.098624
MEAN_MOTION    = 15.78699385
ECCENTRICITY   = .00060587
INCLINATION    = 51.6253
RA_OF_ASC_NODE = 345.6628
ARG_OF_PERICENTER = 70.0166
MEAN_ANOMALY   = 290.1487

EPHEMERIS_TYPE = 0
CLASSIFICATION_TYPE = U
NORAD_CAT_ID   = 65732
ELEMENT_SET_NO = 999
REV_AT_EPOCH   = 1779
BSTAR          = .11934645E-2
MEAN_MOTION_DOT = .218742E-2
MEAN_MOTION_DDOT = 0

CCSDS_OMM_VERS = 2.0
CREATION_DATE  = 
ORIGINATOR     = 

OBJECT_NAME    = GHS-01
OBJECT_ID      = 1998-067XM
CENTER_NAME    = EARTH
REF_FRAME      = TEME
TIME_SYSTEM    = UTC
MEAN_ELEMENT_THEORY = SGP/SGP4

EPOCH          = 2026-01-11T03:54:49.255776
MEAN_MOTION    = 15.97113039
ECCENTRICITY   = .00084213
INCLINATION    = 51.6241
RA_OF_ASC_NODE = 341.9453
ARG_OF_PERICENTER = 100.3248
MEAN_ANOMALY   = 259.8711

EPHEMERIS_TYPE = 0
CLASSIFICATION_TYPE = U
NORAD_CAT_ID   = 65733
ELEMENT_SET_NO = 999
REV_AT_EPOCH   = 1784
BSTAR          = .19087454E-2
MEAN_MOTION_DOT = .851423E-2
MEAN_MOTION_DDOT = .33682771E-3

CCSDS_OMM_VERS = 2.0
CREATION_DATE  = 
ORIGINATOR     = 

OBJECT_NAME    = YOTSUBA-KULOVER
OBJECT_ID      = 1998-067XN
CENTER_NAME    = EARTH
REF_FRAME      = TEME
TIME_SYSTEM    = UTC
MEAN_ELEMENT_THEORY = SGP/SGP4

EPOCH          = 2026-01-11T03:33:51.056640
MEAN_MOTION    = 15.64296847
ECCENTRICITY   = .00039865
INCLINATION    = 51.6295
RA_OF_ASC_NODE = 351.6746
ARG_OF_PERICENTER = 86.2782
MEAN_ANOMALY   = 273.8668

EPHEMERIS_TYPE = 0
CLASSIFICATION_TYPE = U
NORAD_CAT_ID   = 65941
ELEMENT_SET_NO = 999
REV_AT_EPOCH   = 1445
BSTAR          = .94867325E-3
MEAN_MOTION_DOT = .92966E-3
MEAN_MOTION_DDOT = 0

CCSDS_OMM_VERS = 2.0
CREATION_DATE  = 
ORIGINATOR     = 

OBJECT_NAME    = BOTAN
OBJECT_ID      = 1998-067XP
CENTER_NAME    = EARTH
REF_FRAME      = TEME
TIME_SYSTEM    = UTC
MEAN_ELEMENT_THEORY = SGP/SGP4

EPOCH          = 2026-01-11T03:05:08.994048
MEAN_MOTION    = 15.70749769
ECCENTRICITY   = .00047547
INCLINATION    = 51.6270
RA_OF_ASC_NODE = 350.0311
ARG_OF_PERICENTER = 82.6619
MEAN_ANOMALY   = 277.4919

EPHEMERIS_TYPE = 0
CLASSIFICATION_TYPE = U
NORAD_CAT_ID   = 65942
ELEMENT_SET_NO = 999
REV_AT_EPOCH   = 1447
BSTAR          = .12354224E-2
MEAN_MOTION_DOT = .159045E-2
MEAN_MOTION_DDOT = 0

CCSDS_OMM_VERS = 2.0
CREATION_DATE  = 
ORIGINATOR     = 

OBJECT_NAME    = E-KAGAKU-1
OBJECT_ID      = 1998-067XQ
CENTER_NAME    = EARTH
REF_FRAME      = TEME
TIME_SYSTEM    = UTC
MEAN_ELEMENT_THEORY = SGP/SGP4

EPOCH          = 2026-01-11T03:33:41.136192
MEAN_MOTION    = 15.64291673
ECCENTRICITY   = .00025157
INCLINATION    = 51.6316
RA_OF_ASC_NODE = 351.6788
ARG_OF_PERICENTER = 91.9309
MEAN_ANOMALY   = 268.1974

EPHEMERIS_TYPE = 0
CLASSIFICATION_TYPE = U
NORAD_CAT_ID   = 65943
ELEMENT_SET_NO = 999
REV_AT_EPOCH   = 1445
BSTAR          = .91784895E-3
MEAN_MOTION_DOT = .89857E-3
MEAN_MOTION_DDOT = 0

CCSDS_OMM_VERS = 2.0
CREATION_DATE  = 
ORIGINATOR     = 

OBJECT_NAME    = HRC MONOBLOCK CAMERA
OBJECT_ID      = 1998-067XR
CENTER_NAME    = EARTH
REF_FRAME      = TEME
TIME_SYSTEM    = UTC
MEAN_ELEMENT_THEORY = SGP/SGP4

EPOCH          = 2026-01-11T06:33:29.425536
MEAN_MOTION    = 15.56436802
ECCENTRICITY   = .00012108
INCLINATION    = 51.6312
RA_OF_ASC_NODE = 354.0064
ARG_OF_PERICENTER = 347.0208
MEAN_ANOMALY   = 13.0753

EPHEMERIS_TYPE = 0
CLASSIFICATION_TYPE = U
NORAD_CAT_ID   = 66052
ELEMENT_SET_NO = 999
REV_AT_EPOCH   = 1343
BSTAR          = .63179489E-3
MEAN_MOTION_DOT = .45299E-3
MEAN_MOTION_DDOT = 0

CCSDS_OMM_VERS = 2.0
CREATION_DATE  = 
ORIGINATOR     = 

OBJECT_NAME    = HTV-X1
OBJECT_ID      = 2025-241A
CENTER_NAME    = EARTH
REF_FRAME      = TEME
TIME_SYSTEM    = UTC
MEAN_ELEMENT_THEORY = SGP/SGP4

EPOCH          = 2026-01-11T05:01:26.157792
MEAN_MOTION    = 15.49231619
ECCENTRICITY   = .0007704
INCLINATION    = 51.6335
RA_OF_ASC_NODE = 356.5770
ARG_OF_PERICENTER = 5.3714
MEAN_ANOMALY   = 354.7355

EPHEMERIS_TYPE = 0
CLASSIFICATION_TYPE = U
NORAD_CAT_ID   = 66174
ELEMENT_SET_NO = 999
REV_AT_EPOCH   = 51
BSTAR          = .2045032E-3
MEAN_MOTION_DOT = .10931E-3
MEAN_MOTION_DDOT = 0

CCSDS_OMM_VERS = 2.0
CREATION_DATE  = 
ORIGINATOR     = 

OBJECT_NAME    = SZ-21 MODULE
OBJECT_ID      = 2025-246C
CENTER_NAME    = EARTH
REF_FRAME      = TEME
TIME_SYSTEM    = UTC
MEAN_ELEMENT_THEORY = SGP/SGP4

EPOCH          = 2026-01-10T22:12:13.941504
MEAN_MOTION    = 15.64286887
ECCENTRICITY   = .00015072
INCLINATION    = 41.4742
RA_OF_ASC_NODE = 197.7803
ARG_OF_PERICENTER = 129.4079
MEAN_ANOMALY   = 230.6895

EPHEMERIS_TYPE = 0
CLASSIFICATION_TYPE = U
NORAD_CAT_ID   = 66515
ELEMENT_SET_NO = 999
REV_AT_EPOCH   = 901
BSTAR          = .30076067E-3
MEAN_MOTION_DOT = .29319E-3
MEAN_MOTION_DDOT = 0

CCSDS_OMM_VERS = 2.0
CREATION_DATE  = 
ORIGINATOR     = 

OBJECT_NAME    = SHENZHOU-22
OBJECT_ID      = 2025-272A
CENTER_NAME    = EARTH
REF_FRAME      = TEME
TIME_SYSTEM    = UTC
MEAN_ELEMENT_THEORY = SGP/SGP4

EPOCH          = 2026-01-11T05:33:08.310816
MEAN_MOTION    = 15.60400008
ECCENTRICITY   = .00114367
INCLINATION    = 41.4652
RA_OF_ASC_NODE = 197.4962
ARG_OF_PERICENTER = 262.9938
MEAN_ANOMALY   = 96.9600

EPHEMERIS_TYPE = 0
CLASSIFICATION_TYPE = U
NORAD_CAT_ID   = 66645
ELEMENT_SET_NO = 999
REV_AT_EPOCH   = 26764
BSTAR          = .23136174E-3
MEAN_MOTION_DOT = .19305E-3
MEAN_MOTION_DDOT = 0

